<?xml version="1.0" encoding="UTF-8"?>
<kml xmlns="http://www.opengis.net/kml/2.2" xmlns:gx="http://www.google.com/kml/ext/2.2" xmlns:kml="http://www.opengis.net/kml/2.2" xmlns:atom="http://www.w3.org/2005/Atom">
<Document id="document">
	<name>ملف KML بلا عنوان</name>
	<gx:CascadingStyle kml:id="__managed_style_0C3EBAB6D441F9D9E47C_highlight">
		<styleUrl>https://earth.google.com/balloon_components/base/1.1.0.0/card_template.kml#main</styleUrl>
		<Style>
			<IconStyle>
				<scale>1.2</scale>
				<Icon>
					<href>https://earth.google.com/earth/document/icon?color=1976d2&amp;id=2000&amp;scale=4</href>
				</Icon>
				<hotSpot x="64" y="128" xunits="pixels" yunits="insetPixels"/>
			</IconStyle>
			<LabelStyle>
			</LabelStyle>
			<LineStyle>
				<color>ff2dc0fb</color>
				<width>2.18182</width>
			</LineStyle>
			<PolyStyle>
				<color>40ffffff</color>
			</PolyStyle>
			<BalloonStyle>
			</BalloonStyle>
		</Style>
	</gx:CascadingStyle>
	<gx:CascadingStyle kml:id="__managed_style_0C3EBAB6D441F9D9E47C_normal">
		<styleUrl>https://earth.google.com/balloon_components/base/1.1.0.0/card_template.kml#main</styleUrl>
		<Style>
			<IconStyle>
				<Icon>
					<href>https://earth.google.com/earth/document/icon?color=1976d2&amp;id=2000&amp;scale=4</href>
				</Icon>
				<hotSpot x="64" y="128" xunits="pixels" yunits="insetPixels"/>
			</IconStyle>
			<LabelStyle>
			</LabelStyle>
			<LineStyle>
				<color>ff2dc0fb</color>
				<width>1.45455</width>
			</LineStyle>
			<PolyStyle>
				<color>40ffffff</color>
			</PolyStyle>
			<BalloonStyle>
			</BalloonStyle>
		</Style>
	</gx:CascadingStyle>
	<StyleMap id="__managed_style_0C3EBAB6D441F9D9E47C">
		<Pair>
			<key>normal</key>
			<styleUrl>#__managed_style_0C3EBAB6D441F9D9E47C_normal</styleUrl>
		</Pair>
		<Pair>
			<key>highlight</key>
			<styleUrl>#__managed_style_0C3EBAB6D441F9D9E47C_highlight</styleUrl>
		</Pair>
	</StyleMap>
	<Placemark id="0A2E02EDFB41F9D9E456">
		<name>88</name>
		<LookAt>
			<longitude>30.45949599115609</longitude>
			<latitude>29.74234714308491</latitude>
			<altitude>267.7768408367082</altitude>
			<heading>203.7930192407699</heading>
			<tilt>0</tilt>
			<gx:fovy>30.00000000036859</gx:fovy>
			<range>52108.86235252956</range>
			<altitudeMode>absolute</altitudeMode>
		</LookAt>
		<styleUrl>#__managed_style_0C3EBAB6D441F9D9E47C</styleUrl>
		<Polygon>
			<outerBoundaryIs>
				<LinearRing>
					<coordinates>
						30.47973030382583,29.74297633797652,0 30.42389611347647,29.73150109666815,0 30.39647064473993,29.7051025292751,0 30.41292471938412,29.67514358583806,0 30.49864214065511,29.70817582892895,0 30.47973030382583,29.74297633797652,0 
					</coordinates>
				</LinearRing>
			</outerBoundaryIs>
		</Polygon>
	</Placemark>
</Document>
</kml>
